{
    "links": {
        "self": "http://www.neowsapp.com/rest/v1/neo/54053913?api_key=iIulBulltgU6a56xZRHN4H3l9WmuAYTsLGpBGhQ2"
    },
    "id": "54053913",
    "neo_reference_id": "54053913",
    "name": "(2020 RB3)",
    "designation": "2020 RB3",
    "nasa_jpl_url": "http://ssd.jpl.nasa.gov/sbdb.cgi?sstr=54053913",
    "absolute_magnitude_h": 25.328,
    "estimated_diameter": {
        "kilometers": {
            "estimated_diameter_min": 0.0228536187,
            "estimated_diameter_max": 0.0511022449
        },
        "meters": {
            "estimated_diameter_min": 22.8536186719,
            "estimated_diameter_max": 51.1022448821
        },
        "miles": {
            "estimated_diameter_min": 0.0142005759,
            "estimated_diameter_max": 0.031753453
        },
        "feet": {
            "estimated_diameter_min": 74.9790662834,
            "estimated_diameter_max": 167.6582890991
        }
    },
    "is_potentially_hazardous_asteroid": false,
    "close_approach_data": [
        {
            "close_approach_date": "2020-09-02",
            "close_approach_date_full": "2020-Sep-02 11:50",
            "epoch_date_close_approach": 1599047400000,
            "relative_velocity": {
                "kilometers_per_second": "9.3067241686",
                "kilometers_per_hour": "33504.2070068863",
                "miles_per_hour": "20818.2112926955"
            },
            "miss_distance": {
                "astronomical": "0.039110845",
                "lunar": "15.214118705",
                "kilometers": "5850899.10590015",
                "miles": "3635580.12031607"
            },
            "orbiting_body": "Earth"
        }
    ],
    "orbital_data": {
        "orbit_id": "3",
        "orbit_determination_date": "2020-09-25 06:31:35",
        "first_observation_date": "2020-09-06",
        "last_observation_date": "2020-09-21",
        "data_arc_in_days": 15,
        "observations_used": 33,
        "orbit_uncertainty": "8",
        "minimum_orbit_intersection": ".0358109",
        "jupiter_tisserand_invariant": "3.278",
        "epoch_osculation": "2459103.5",
        "eccentricity": ".5671196273102077",
        "semi_major_axis": "2.391882419020925",
        "inclination": "9.010289316089652",
        "ascending_node_longitude": "342.8602935263635",
        "orbital_period": "1351.164315246474",
        "perihelion_distance": "1.03539895297594",
        "perihelion_argument": "343.9112318826515",
        "aphelion_distance": "3.74836588506591",
        "perihelion_time": "2459084.110142764720",
        "mean_anomaly": "5.166173000526195",
        "mean_motion": ".2664368766535476",
        "equinox": "J2000",
        "orbit_class": {
            "orbit_class_type": "AMO",
            "orbit_class_description": "Near-Earth asteroid orbits similar to that of 1221 Amor",
            "orbit_class_range": "1.017 AU < q (perihelion) < 1.3 AU"
        }
    },
    "is_sentry_object": false
}